[{"OBJECT_NAME":"STARLINK-31666","OBJECT_ID":"2024-076J","EPOCH":"2026-03-09T04:06:12.654720","MEAN_MOTION":15.27577145,"ECCENTRICITY":0.00011205,"INCLINATION":43.0036,"RA_OF_ASC_NODE":4.9544,"ARG_OF_PERICENTER":268.9882,"MEAN_ANOMALY":91.0841,"EPHEMERIS_TYPE":0,"CLASSIFICATION_TYPE":"U","NORAD_CAT_ID":59572,"ELEMENT_SET_NO":999,"REV_AT_EPOCH":10650,"BSTAR":-5.4722042e-5,"MEAN_MOTION_DOT":-1.767e-5,"MEAN_MOTION_DDOT":0},{"OBJECT_NAME":"CZ-4B DEB","OBJECT_ID":"2017-034G","EPOCH":"2026-03-09T09:39:33.034752","MEAN_MOTION":14.99948696,"ECCENTRICITY":0.01166945,"INCLINATION":43.0793,"RA_OF_ASC_NODE":187.5221,"ARG_OF_PERICENTER":337.6416,"MEAN_ANOMALY":21.9365,"EPHEMERIS_TYPE":0,"CLASSIFICATION_TYPE":"U","NORAD_CAT_ID":43431,"ELEMENT_SET_NO":999,"REV_AT_EPOCH":46516,"BSTAR":0.0010902516,"MEAN_MOTION_DOT":0.00015701,"MEAN_MOTION_DDOT":0}]
